COSMOS 2413 (712)       
1 28509U 04053B   13022.41227959  .00000088  00000-0  10000-3 0  2457
2 28509  63.2608 234.4261 0005253 137.4001 266.3383  2.13100588 62843
COSMOS 2419 (714)       
1 28915U 05050A   13022.85947581 -.00000034  00000-0  00000+0 0    22
2 28915  64.9337 120.0199 0015569 348.4065  21.1436  2.13098662 55102
COSMOS 2425 (716)       
1 29670U 06062A   13022.41281444 -.00000050  00000-0  10000-3 0  7059
2 29670  65.8910 358.7480 0022802 340.5802 120.8458  2.13105150 47294
COSMOS 2426 (717)       
1 29671U 06062B   13022.68255924 -.00000050  00000-0  10000-3 0  7244
2 29671  65.9074 358.7941 0016472 174.9789   3.2776  2.13103134 47307
COSMOS 2424 (715)       
1 29672U 06062C   13023.21410503 -.00000050  00000-0  10000-3 0  7263
2 29672  65.8923 358.7275 0015974 174.4450 231.3942  2.13102965 47317
COSMOS 2433 (720)       
1 32275U 07052A   13022.68373772 -.00000035  00000-0  10000-3 0  4521
2 32275  64.9460 119.7748 0002232 236.8647 266.6649  2.13096519 40810
COSMOS 2432 (719)       
1 32276U 07052B   13022.05379569 -.00000037  00000-0  10000-3 0  4356
2 32276  64.9587 119.8411 0011890 340.4614 354.2506  2.13098013 40799
COSMOS 2434 (721)       
1 32393U 07065A   13023.19769750 -.00000051  00000-0  00000+0 0  2912
2 32393  65.5163 358.6303 0001971 143.9087 292.4243  2.13102746 39538
COSMOS 2435 (722)       
1 32394U 07065B   13022.85350060 -.00000051  00000-0  10000-3 0  2000
2 32394  65.5193 358.6367 0020169 352.5257 135.9218  2.13103820 39468
COSMOS 2436 (723)       
1 32395U 07065C   13022.66892698 -.00000051  00000-0  10000-3 0  2042
2 32395  65.5284 358.6711 0017708 345.6905 136.6937  2.13102963 39453
COSMOS 2442 (724)       
1 33378U 08046A   13022.44036056 -.00000036  00000-0  10000-3 0  2344
2 33378  64.8611 119.2753 0023191 332.9737  32.9432  2.13103707 33676
COSMOS 2443 (725)       
1 33379U 08046B   13022.68706980 -.00000035  00000-0  10000-3 0  2193
2 33379  64.8700 119.3158 0020682 183.0029 236.9044  2.13101679 33689
COSMOS 2444 (726)       
1 33380U 08046C   13022.65037950 -.00000035  00000-0  10000-3 0  2264
2 33380  64.8779 119.3387 0023722 325.2713  23.3495  2.13103028 33665
COSMOS 2447 (727)       
1 33466U 08067A   13022.68932894  .00000085  00000-0  00000+0 0  1668
2 33466  64.1001 238.5705 0002917 273.3124 206.7382  2.13101079 31733
COSMOS 2449 (729)       
1 33467U 08067B   13023.05226713  .00000087  00000-0  10000-3 0  1675
2 33467  64.0885 238.5262 0002747 314.0598 220.0204  2.13101964 31768
COSMOS 2448 (728)       
1 33468U 08067C   13022.21128541  .00000082  00000-0  10000-3 0  1599
2 33468  64.0932 238.5633 0004684 333.1799 183.5818  2.13101653 31737
COSMOS 2456 (730)       
1 36111U 09070A   13022.25256525  .00000083  00000-0  00000+0 0  9055
2 36111  64.3287 238.7750 0005224 341.6642 253.5406  2.13101928 24171
COSMOS 2457 (733)       
1 36112U 09070B   13023.18980854  .00000087  00000-0  00000+0 0  8893
2 36112  64.3103 238.6969 0006520 141.3120 227.6843  2.13101616 24201
COSMOS 2458 (734)       
1 36113U 09070C   13022.40504372  .00000084  00000-0  10000-3 0  8954
2 36113  64.3163 238.7210 0003263  41.0531 131.5154  2.13101989 24189
COSMOS 2459 (731)       
1 36400U 10007A   13022.65562149 -.00000035  00000-0  10000-3 0  8315
2 36400  64.8464 119.0902 0029850 354.3739 357.4523  2.13102499 22539
COSMOS 2461 (735)       
1 36401U 10007B   13022.41184413 -.00000036  00000-0  10000-3 0  8304
2 36401  64.8394 119.0909 0005667  96.6761 338.4589  2.13102537 22534
COSMOS 2460 (732)       
1 36402U 10007C   13022.40972317 -.00000036  00000-0  10000-3 0  8391
2 36402  64.8291 119.0836 0001586 171.7448 305.4781  2.13102215 22534
COSMOS 2466 (738)       
1 37137U 10041A   13022.46082427 -.00000051  00000-0  10000-3 0  7054
2 37137  65.0950 359.4046 0020138 159.8156 295.2605  2.13102479 18612
COSMOS 2465 (737)       
1 37138U 10041B   13022.69866513 -.00000051  00000-0  00000+0 0  7107
2 37138  65.1113 359.4452 0034518 171.5167 287.0316  2.13102856 18613
COSMOS 2464 (736)       
1 37139U 10041C   13023.06717829 -.00000051  00000-0  00000+0 0  6957
2 37139  65.1135 359.4213 0020650   6.9185 148.9080  2.13102828 18629
COSMOS 2471 (701K)      
1 37372U 11009A   13022.46197914 -.00000036  00000-0  10000-3 0  5701
2 37372  64.8405 119.0169 0005852 229.7626  37.4697  2.13107372 14818
COSMOS 2474 (742)       
1 37829U 11055A   13023.21501167  .00000088  00000-0  00000+0 0  3969
2 37829  64.6491 238.6414 0006218 275.3665 203.6362  2.13101926 10198
COSMOS 2476 (744)       
1 37867U 11064A   13022.39346833  .00000084  00000-0  00000+0 0  3636
2 37867  64.6304 238.7836 0014635 263.5506 350.3959  2.13102066  9520
COSMOS 2477 (745)       
1 37868U 11064B   13022.96068852  .00000087  00000-0  00000+0 0  3646
2 37868  64.6382 238.7914 0012805 265.8775 243.2083  2.13101969  9499
COSMOS 2475 (743)       
1 37869U 11064C   13022.66077779  .00000085  00000-0  10000-3 0  3533
2 37869  64.6450 238.7793 0038965 275.5238 266.6752  2.13759692  9492
COSMOS 2478 (746)       
1 37938U 11071A   13022.41520929 -.00000036  00000-0  00000+0 0  3454
2 37938  64.8587 119.2073 0012662 236.1150 155.1482  2.13102516  9105
